<?xml version="1.0" encoding="utf-8"?>
<kml xmlns="http://www.opengis.net/kml/2.2">
  <Document>
    <name>11/1139/1354.kml</name>
    <description></description>
    <Style>
      <ListStyle id="hideChildren">
        <listItemType>checkHideChildren</listItemType>
      </ListStyle>
    </Style>
    <Region>
      <LatLonAltBox>
        <north>50.17689812200107</north>
        <south>50.06419173665910</south>
        <east>20.39062500000001</east>
        <west>20.21484375000002</west>
      </LatLonAltBox>
      <Lod>
        <minLodPixels>128</minLodPixels>
        <maxLodPixels>-1</maxLodPixels>
      </Lod>
    </Region>
    <GroundOverlay>
      <drawOrder>22</drawOrder>
      <Icon>
        <href>1354.png</href>
      </Icon>
      <LatLonBox>
        <north>50.17689812200107</north>
        <south>50.06419173665910</south>
        <east>20.39062500000001</east>
        <west>20.21484375000002</west>
      </LatLonBox>
    </GroundOverlay>
      </Document>
</kml>
    