<?xml version="1.0" encoding="utf-8"?>
<kml xmlns="http://www.opengis.net/kml/2.2">
  <Document>
    <name>11/1136/1356.kml</name>
    <description></description>
    <Style>
      <ListStyle id="hideChildren">
        <listItemType>checkHideChildren</listItemType>
      </ListStyle>
    </Style>
    <Region>
      <LatLonAltBox>
        <north>50.40151532278237</north>
        <south>50.28933925329178</south>
        <east>19.86328124999999</east>
        <west>19.68750000000000</west>
      </LatLonAltBox>
      <Lod>
        <minLodPixels>128</minLodPixels>
        <maxLodPixels>-1</maxLodPixels>
      </Lod>
    </Region>
    <GroundOverlay>
      <drawOrder>22</drawOrder>
      <Icon>
        <href>1356.png</href>
      </Icon>
      <LatLonBox>
        <north>50.40151532278237</north>
        <south>50.28933925329178</south>
        <east>19.86328124999999</east>
        <west>19.68750000000000</west>
      </LatLonBox>
    </GroundOverlay>
      </Document>
</kml>
    