<?xml version="1.0" encoding="utf-8"?>
<kml xmlns="http://www.opengis.net/kml/2.2">
  <Document>
    <name>11/1135/1352.kml</name>
    <description></description>
    <Style>
      <ListStyle id="hideChildren">
        <listItemType>checkHideChildren</listItemType>
      </ListStyle>
    </Style>
    <Region>
      <LatLonAltBox>
        <north>49.95121990866204</north>
        <south>49.83798245308484</south>
        <east>19.68750000000000</east>
        <west>19.51171875000000</west>
      </LatLonAltBox>
      <Lod>
        <minLodPixels>128</minLodPixels>
        <maxLodPixels>-1</maxLodPixels>
      </Lod>
    </Region>
    <GroundOverlay>
      <drawOrder>22</drawOrder>
      <Icon>
        <href>1352.png</href>
      </Icon>
      <LatLonBox>
        <north>49.95121990866204</north>
        <south>49.83798245308484</south>
        <east>19.68750000000000</east>
        <west>19.51171875000000</west>
      </LatLonBox>
    </GroundOverlay>
      </Document>
</kml>
    